start=new Date('2022-10-06T00:00:00.000Z').valueOf();
sats=[{"EPHEMERIS_TYPE":"0","ARG_OF_PERICENTER":"59.4785","RA_OF_ASC_NODE":"353.4700","COUNTRY_CODE":"US","RCS_SIZE":"LARGE","DECAY_DATE":null,"PERIAPSIS":"546.054","OBJECT_NAME":"STARLINK-1309","APOAPSIS":"548.352","NORAD_CAT_ID":"45414","CENTER_NAME":"EARTH","TLE_LINE1":"1 45414U 20019BG  22278.49165315 -.00001249  00000-0 -64960-4 0  9992","GP_ID":"214238936","REV_AT_EPOCH":"14126","BSTAR":"-0.00006496000000","LAUNCH_DATE":"2020-03-18","REF_FRAME":"TEME","MEAN_ELEMENT_THEORY":"SGP4","INCLINATION":"53.0580","MEAN_MOTION":"15.06403487","MEAN_MOTION_DDOT":"0.0000000000000","FILE":"3592692","TLE_LINE2":"2 45414  53.0580 353.4700 0001659  59.4785 300.6368 15.06403487141260","TIME_SYSTEM":"UTC","MEAN_MOTION_DOT":"-0.00001249","OBJECT_TYPE":"PAYLOAD","SITE":"AFETR","PERIOD":"95.592","ELEMENT_SET_NO":"999","OBJECT_ID":"2020-019BG","SEMIMAJOR_AXIS":"6925.338","MEAN_ANOMALY":"300.6368","CLASSIFICATION_TYPE":"U","ECCENTRICITY":"0.00016590","EPOCH":"2022-10-05T11:47:58.832160"},{"APOAPSIS":"548.272","NORAD_CAT_ID":"45415","CENTER_NAME":"EARTH","TLE_LINE1":"1 45415U 20019BH  22278.51745257 -.00000235  00000-0  31182-5 0  9999","GP_ID":"214240186","BSTAR":"0.00000311820000","REV_AT_EPOCH":"14130","LAUNCH_DATE":"2020-03-18","REF_FRAME":"TEME","ARG_OF_PERICENTER":"72.1083","EPHEMERIS_TYPE":"0","RA_OF_ASC_NODE":"353.3625","COUNTRY_CODE":"US","RCS_SIZE":"LARGE","DECAY_DATE":null,"PERIAPSIS":"546.149","OBJECT_NAME":"STARLINK-1316","ELEMENT_SET_NO":"999","PERIOD":"95.592","OBJECT_ID":"2020-019BH","SEMIMAJOR_AXIS":"6925.346","MEAN_ANOMALY":"288.0073","CLASSIFICATION_TYPE":"U","ECCENTRICITY":"0.00015330","EPOCH":"2022-10-05T12:25:07.902048","MEAN_ELEMENT_THEORY":"SGP4","MEAN_MOTION":"15.06400966","INCLINATION":"53.0558","MEAN_MOTION_DDOT":"0.0000000000000","TLE_LINE2":"2 45415  53.0558 353.3625 0001533  72.1083 288.0073 15.06400966141301","FILE":"3592692","TIME_SYSTEM":"UTC","MEAN_MOTION_DOT":"-0.00000235","OBJECT_TYPE":"PAYLOAD","SITE":"AFETR"},{"MEAN_ELEMENT_THEORY":"SGP4","MEAN_MOTION":"15.06402722","INCLINATION":"53.0544","MEAN_MOTION_DDOT":"0.0000000000000","FILE":"3592692","TLE_LINE2":"2 45416  53.0544 353.4964 0001484  62.1256 297.9883 15.06402722141287","TIME_SYSTEM":"UTC","MEAN_MOTION_DOT":"-0.00000540","OBJECT_TYPE":"PAYLOAD","SITE":"AFETR","ELEMENT_SET_NO":"999","PERIOD":"95.592","OBJECT_ID":"2020-019BJ","SEMIMAJOR_AXIS":"6925.340","MEAN_ANOMALY":"297.9883","CLASSIFICATION_TYPE":"U","ECCENTRICITY":"0.00014840","EPOCH":"2022-10-05T11:37:21.809280","EPHEMERIS_TYPE":"0","ARG_OF_PERICENTER":"62.1256","RA_OF_ASC_NODE":"353.4964","COUNTRY_CODE":"US","DECAY_DATE":null,"RCS_SIZE":"LARGE","PERIAPSIS":"546.177","OBJECT_NAME":"STARLINK-1318","APOAPSIS":"548.233","NORAD_CAT_ID":"45416","CENTER_NAME":"EARTH","GP_ID":"214239937","TLE_LINE1":"1 45416U 20019BJ  22278.48428020 -.00000540  00000-0 -17324-4 0  9993","BSTAR":"-0.00001732400000","REV_AT_EPOCH":"14128","REF_FRAME":"TEME","LAUNCH_DATE":"2020-03-18"},{"EPOCH":"2022-10-05T18:06:09.597600","ECCENTRICITY":"0.00016380","CLASSIFICATION_TYPE":"U","MEAN_ANOMALY":"285.8511","SEMIMAJOR_AXIS":"6925.387","OBJECT_ID":"2020-019BK","ELEMENT_SET_NO":"999","PERIOD":"95.593","SITE":"AFETR","MEAN_MOTION_DOT":"0.00007498","OBJECT_TYPE":"PAYLOAD","TIME_SYSTEM":"UTC","TLE_LINE2":"2 45417  53.0556  22.2756 0001638  74.2658 285.8511 15.06387319141178","FILE":"3593077","MEAN_MOTION_DDOT":"0.0000000000000","MEAN_MOTION":"15.06387319","INCLINATION":"53.0556","MEAN_ELEMENT_THEORY":"SGP4","LAUNCH_DATE":"2020-03-18","REF_FRAME":"TEME","BSTAR":"0.00052193000000","REV_AT_EPOCH":"14117","GP_ID":"214272385","TLE_LINE1":"1 45417U 20019BK  22278.75427775  .00007498  00000-0  52193-3 0  9999","CENTER_NAME":"EARTH","NORAD_CAT_ID":"45417","APOAPSIS":"548.387","OBJECT_NAME":"STARLINK-1286","PERIAPSIS":"546.118","DECAY_DATE":null,"RCS_SIZE":"LARGE","COUNTRY_CODE":"US","RA_OF_ASC_NODE":"22.2756","ARG_OF_PERICENTER":"74.2658","EPHEMERIS_TYPE":"0"},{"CLASSIFICATION_TYPE":"U","MEAN_ANOMALY":"328.1159","EPOCH":"2022-10-05T15:17:00.507552","ECCENTRICITY":"0.00012920","SEMIMAJOR_AXIS":"6917.765","OBJECT_ID":"2020-019BL","ELEMENT_SET_NO":"999","PERIOD":"95.435","SITE":"AFETR","FILE":"3593077","TLE_LINE2":"2 45418  52.9993  43.0571 0001292  31.9909 328.1159 15.08877764140564","MEAN_MOTION_DOT":"0.00030925","OBJECT_TYPE":"PAYLOAD","TIME_SYSTEM":"UTC","MEAN_MOTION_DDOT":"0.0000000000000","MEAN_ELEMENT_THEORY":"SGP4","INCLINATION":"52.9993","MEAN_MOTION":"15.08877764","LAUNCH_DATE":"2020-03-18","REF_FRAME":"TEME","REV_AT_EPOCH":"14056","BSTAR":"0.00195040000000","GP_ID":"214273135","TLE_LINE1":"1 45418U 20019BL  22278.63681143  .00030925  00000-0  19504-2 0  9997","NORAD_CAT_ID":"45418","CENTER_NAME":"EARTH","APOAPSIS":"540.524","PERIAPSIS":"538.736","OBJECT_NAME":"STARLINK-1299","COUNTRY_CODE":"US","RCS_SIZE":"LARGE","DECAY_DATE":null,"RA_OF_ASC_NODE":"43.0571","ARG_OF_PERICENTER":"31.9909","EPHEMERIS_TYPE":"0"},{"RA_OF_ASC_NODE":"23.2062","EPHEMERIS_TYPE":"0","ARG_OF_PERICENTER":"79.2878","OBJECT_NAME":"STARLINK-1308","PERIAPSIS":"546.126","DECAY_DATE":null,"RCS_SIZE":"LARGE","COUNTRY_CODE":"US","CENTER_NAME":"EARTH","NORAD_CAT_ID":"45419","APOAPSIS":"548.293","LAUNCH_DATE":"2020-03-18","REF_FRAME":"TEME","REV_AT_EPOCH":"14089","BSTAR":"-0.00004054800000","TLE_LINE1":"1 45419U 20019BM  22278.55155081 -.00000885  00000-0 -40548-4 0  9994","GP_ID":"214239687","MEAN_MOTION_DDOT":"0.0000000000000","MEAN_MOTION":"15.06401359","INCLINATION":"53.0565","MEAN_ELEMENT_THEORY":"SGP4","SITE":"AFETR","MEAN_MOTION_DOT":"-0.00000885","OBJECT_TYPE":"PAYLOAD","TIME_SYSTEM":"UTC","TLE_LINE2":"2 45419  53.0565  23.2062 0001564  79.2878 280.8287 15.06401359140892","FILE":"3592692","OBJECT_ID":"2020-019BM","PERIOD":"95.592","ELEMENT_SET_NO":"999","EPOCH":"2022-10-05T13:14:13.989984","ECCENTRICITY":"0.00015640","CLASSIFICATION_TYPE":"U","MEAN_ANOMALY":"280.8287","SEMIMAJOR_AXIS":"6925.344"},{"OBJECT_ID":"2020-025A","ELEMENT_SET_NO":"999","PERIOD":"95.592","MEAN_ANOMALY":"299.4230","CLASSIFICATION_TYPE":"U","ECCENTRICITY":"0.00017260","EPOCH":"2022-10-05T09:18:01.938816","SEMIMAJOR_AXIS":"6925.356","MEAN_MOTION_DDOT":"0.0000000000000","MEAN_ELEMENT_THEORY":"SGP4","MEAN_MOTION":"15.06397428","INCLINATION":"53.0548","SITE":"AFETR","TLE_LINE2":"2 45531  53.0548 323.9389 0001726  60.6931 299.4230 15.06397428136490","FILE":"3592692","TIME_SYSTEM":"UTC","MEAN_MOTION_DOT":"-0.00000295","OBJECT_TYPE":"PAYLOAD","NORAD_CAT_ID":"45531","CENTER_NAME":"EARTH","APOAPSIS":"548.417","REV_AT_EPOCH":"13649","BSTAR":"-0.00000090895000","LAUNCH_DATE":"2020-04-22","REF_FRAME":"TEME","TLE_LINE1":"1 45531U 20025A   22278.38752244 -.00000295  00000-0 -90895-6 0  9998","GP_ID":"214239198","ARG_OF_PERICENTER":"60.6931","EPHEMERIS_TYPE":"0","RA_OF_ASC_NODE":"323.9389","PERIAPSIS":"546.026","OBJECT_NAME":"STARLINK-1329","COUNTRY_CODE":"US","RCS_SIZE":"LARGE","DECAY_DATE":null},{"PERIAPSIS":"546.038","OBJECT_NAME":"STARLINK-1338","COUNTRY_CODE":"US","RCS_SIZE":"LARGE","DECAY_DATE":null,"EPHEMERIS_TYPE":"0","ARG_OF_PERICENTER":"66.4772","RA_OF_ASC_NODE":"323.8930","REV_AT_EPOCH":"13649","BSTAR":"-0.00001200100000","LAUNCH_DATE":"2020-04-22","REF_FRAME":"TEME","TLE_LINE1":"1 45532U 20025B   22278.39858440 -.00000460  00000-0 -12001-4 0  9990","GP_ID":"214238948","NORAD_CAT_ID":"45532","CENTER_NAME":"EARTH","APOAPSIS":"548.366","SITE":"AFETR","TLE_LINE2":"2 45532  53.0566 323.8930 0001681  66.4772 293.6393 15.06403754136495","FILE":"3592692","TIME_SYSTEM":"UTC","OBJECT_TYPE":"PAYLOAD","MEAN_MOTION_DOT":"-0.00000460","MEAN_MOTION_DDOT":"0.0000000000000","MEAN_ELEMENT_THEORY":"SGP4","INCLINATION":"53.0566","MEAN_MOTION":"15.06403754","MEAN_ANOMALY":"293.6393","CLASSIFICATION_TYPE":"U","ECCENTRICITY":"0.00016810","EPOCH":"2022-10-05T09:33:57.692160","SEMIMAJOR_AXIS":"6925.337","OBJECT_ID":"2020-025B","ELEMENT_SET_NO":"999","PERIOD":"95.592"},{"GP_ID":"214240198","TLE_LINE1":"1 45534U 20025D   22278.40963167 -.00001719  00000-0 -96486-4 0  9994","REF_FRAME":"TEME","LAUNCH_DATE":"2020-04-22","BSTAR":"-0.00009648600000","REV_AT_EPOCH":"13649","APOAPSIS":"548.833","CENTER_NAME":"EARTH","NORAD_CAT_ID":"45534","DECAY_DATE":null,"RCS_SIZE":"LARGE","COUNTRY_CODE":"US","OBJECT_NAME":"STARLINK-1341","PERIAPSIS":"545.584","RA_OF_ASC_NODE":"323.8287","EPHEMERIS_TYPE":"0","ARG_OF_PERICENTER":"29.9584","SEMIMAJOR_AXIS":"6925.344","EPOCH":"2022-10-05T09:49:52.176288","ECCENTRICITY":"0.00023460","CLASSIFICATION_TYPE":"U","MEAN_ANOMALY":"330.1539","PERIOD":"95.592","ELEMENT_SET_NO":"999","OBJECT_ID":"2020-025D","MEAN_MOTION_DOT":"-0.00001719","OBJECT_TYPE":"PAYLOAD","TIME_SYSTEM":"UTC","TLE_LINE2":"2 45534  53.0542 323.8287 0002346  29.9584 330.1539 15.06401650136492","FILE":"3592692","SITE":"AFETR","MEAN_MOTION":"15.06401650","INCLINATION":"53.0542","MEAN_ELEMENT_THEORY":"SGP4","MEAN_MOTION_DDOT":"0.0000000000000"},{"ELEMENT_SET_NO":"999","PERIOD":"95.592","OBJECT_ID":"2020-025E","SEMIMAJOR_AXIS":"6925.345","CLASSIFICATION_TYPE":"U","MEAN_ANOMALY":"302.1477","EPOCH":"2022-10-05T11:51:57.713472","ECCENTRICITY":"0.00016630","MEAN_ELEMENT_THEORY":"SGP4","MEAN_MOTION":"15.06401026","INCLINATION":"53.0560","MEAN_MOTION_DDOT":"0.0000000000000","FILE":"3592692","TLE_LINE2":"2 45535  53.0560 323.4519 0001663  57.9674 302.1477 15.06401026136519","OBJECT_TYPE":"PAYLOAD","MEAN_MOTION_DOT":"-0.00001168","TIME_SYSTEM":"UTC","SITE":"AFETR","APOAPSIS":"548.362","NORAD_CAT_ID":"45535","CENTER_NAME":"EARTH","TLE_LINE1":"1 45535U 20025E   22278.49441798 -.00001168  00000-0 -59519-4 0  9999","GP_ID":"214239949","REF_FRAME":"TEME","LAUNCH_DATE":"2020-04-22","REV_AT_EPOCH":"13651","BSTAR":"-0.00005951900000","RA_OF_ASC_NODE":"323.4519","ARG_OF_PERICENTER":"57.9674","EPHEMERIS_TYPE":"0","COUNTRY_CODE":"US","RCS_SIZE":"LARGE","DECAY_DATE":null,"PERIAPSIS":"546.059","OBJECT_NAME":"STARLINK-1350"}];
